{"type": "FeatureCollection", "features": [{"type": "Feature", "geometry": {"type": "Point", "coordinates": [28.0355513, 43.2723285]}, "properties": {"kind": "hydrant"}}, {"type": "Feature", "geometry": {"type": "Point", "coordinates": [28.0358577, 43.2725859]}, "properties": {"kind": "hydrant"}}, {"type": "Feature", "geometry": {"type": "Point", "coordinates": [28.0337716, 43.2757322]}, "properties": {"kind": "hydrant"}}, {"type": "Feature", "geometry": {"type": "Point", "coordinates": [28.0494436, 43.3013848]}, "properties": {"kind": "hydrant"}}, {"type": "Feature", "geometry": {"type": "Point", "coordinates": [28.0377663, 43.2758034]}, "properties": {"kind": "hydrant"}}, {"type": "Feature", "geometry": {"type": "Point", "coordinates": [28.038028, 43.2760152]}, "properties": {"kind": "hydrant"}}, {"type": "Feature", "geometry": {"type": "Point", "coordinates": [28.0383343, 43.2762822]}, "properties": {"kind": "hydrant"}}, {"type": "Feature", "geometry": {"type": "Point", "coordinates": [28.038642, 43.2761205]}, "properties": {"kind": "hydrant"}}, {"type": "Feature", "geometry": {"type": "Point", "coordinates": [28.0388184, 43.2759104]}, "properties": {"kind": "hydrant"}}, {"type": "Feature", "geometry": {"type": "Point", "coordinates": [28.0375017, 43.276691]}, "properties": {"kind": "hydrant"}}, {"type": "Feature", "geometry": {"type": "Point", "coordinates": [28.040176, 43.2781759]}, "properties": {"kind": "hydrant"}}, {"type": "Feature", "geometry": {"type": "Point", "coordinates": [28.0412255, 43.2779883]}, "properties": {"kind": "hydrant"}}, {"type": "Feature", "geometry": {"type": "Point", "coordinates": [28.0400463, 43.2792753]}, "properties": {"kind": "hydrant"}}, {"type": "Feature", "geometry": {"type": "Point", "coordinates": [28.0428916, 43.2791665]}, "properties": {"kind": "hydrant"}}, {"type": "Feature", "geometry": {"type": "Point", "coordinates": [28.0430553, 43.2794269]}, "properties": {"kind": "hydrant"}}, {"type": "Feature", "geometry": {"type": "Point", "coordinates": [28.0397825, 43.2800122]}, "properties": {"kind": "hydrant"}}, {"type": "Feature", "geometry": {"type": "Point", "coordinates": [28.040981, 43.2807945]}, "properties": {"kind": "hydrant"}}, {"type": "Feature", "geometry": {"type": "Point", "coordinates": [28.0381304, 43.2805402]}, "properties": {"kind": "hydrant"}}, {"type": "Feature", "geometry": {"type": "Point", "coordinates": [28.0373051, 43.2807041]}, "properties": {"kind": "hydrant"}}, {"type": "Feature", "geometry": {"type": "Point", "coordinates": [28.0432804, 43.2810175]}, "properties": {"kind": "hydrant"}}, {"type": "Feature", "geometry": {"type": "Point", "coordinates": [28.0410759, 43.2826432]}, "properties": {"kind": "hydrant"}}, {"type": "Feature", "geometry": {"type": "Point", "coordinates": [28.042044, 43.2823926]}, "properties": {"kind": "hydrant"}}, {"type": "Feature", "geometry": {"type": "Point", "coordinates": [28.0392849, 43.2820647]}, "properties": {"kind": "hydrant"}}, {"type": "Feature", "geometry": {"type": "Point", "coordinates": [28.0374753, 43.2839448]}, "properties": {"kind": "hydrant"}}, {"type": "Feature", "geometry": {"type": "Point", "coordinates": [28.0382133, 43.2830598]}, "properties": {"kind": "hydrant"}}, {"type": "Feature", "geometry": {"type": "Point", "coordinates": [28.0401814, 43.2836992]}, "properties": {"kind": "hydrant"}}, {"type": "Feature", "geometry": {"type": "Point", "coordinates": [28.041406, 43.283359]}, "properties": {"kind": "hydrant"}}, {"type": "Feature", "geometry": {"type": "Point", "coordinates": [28.0414639, 43.2840834]}, "properties": {"kind": "hydrant"}}, {"type": "Feature", "geometry": {"type": "Point", "coordinates": [28.0434838, 43.2835628]}, "properties": {"kind": "hydrant"}}, {"type": "Feature", "geometry": {"type": "Point", "coordinates": [28.0421884, 43.2853505]}, "properties": {"kind": "hydrant"}}, {"type": "Feature", "geometry": {"type": "Point", "coordinates": [28.0437477, 43.2848468]}, "properties": {"kind": "hydrant"}}, {"type": "Feature", "geometry": {"type": "Point", "coordinates": [28.0401115, 43.284849]}, "properties": {"kind": "hydrant"}}, {"type": "Feature", "geometry": {"type": "Point", "coordinates": [28.0394568, 43.2857606]}, "properties": {"kind": "hydrant"}}, {"type": "Feature", "geometry": {"type": "Point", "coordinates": [28.0398913, 43.2862843]}, "properties": {"kind": "hydrant"}}, {"type": "Feature", "geometry": {"type": "Point", "coordinates": [28.0400053, 43.2867723]}, "properties": {"kind": "hydrant"}}, {"type": "Feature", "geometry": {"type": "Point", "coordinates": [28.044104, 43.2870421]}, "properties": {"kind": "hydrant"}}, {"type": "Feature", "geometry": {"type": "Point", "coordinates": [28.041445, 43.2874122]}, "properties": {"kind": "hydrant"}}, {"type": "Feature", "geometry": {"type": "Point", "coordinates": [28.0446516, 43.2882935]}, "properties": {"kind": "hydrant"}}, {"type": "Feature", "geometry": {"type": "Point", "coordinates": [28.0388222, 43.2879295]}, "properties": {"kind": "hydrant"}}, {"type": "Feature", "geometry": {"type": "Point", "coordinates": [28.0403281, 43.2883043]}, "properties": {"kind": "hydrant"}}, {"type": "Feature", "geometry": {"type": "Point", "coordinates": [28.0404941, 43.2892083]}, "properties": {"kind": "hydrant"}}, {"type": "Feature", "geometry": {"type": "Point", "coordinates": [28.0408005, 43.2895298]}, "properties": {"kind": "hydrant"}}, {"type": "Feature", "geometry": {"type": "Point", "coordinates": [28.041379, 43.2900039]}, "properties": {"kind": "hydrant"}}, {"type": "Feature", "geometry": {"type": "Point", "coordinates": [28.042794, 43.2901098]}, "properties": {"kind": "hydrant"}}, {"type": "Feature", "geometry": {"type": "Point", "coordinates": [28.0456931, 43.2903304]}, "properties": {"kind": "hydrant"}}, {"type": "Feature", "geometry": {"type": "Point", "coordinates": [28.040237, 43.2910935]}, "properties": {"kind": "hydrant"}}, {"type": "Feature", "geometry": {"type": "Point", "coordinates": [28.0413786, 43.2913323]}, "properties": {"kind": "hydrant"}}, {"type": "Feature", "geometry": {"type": "Point", "coordinates": [28.0460888, 43.2939177]}, "properties": {"kind": "hydrant"}}, {"type": "Feature", "geometry": {"type": "Point", "coordinates": [28.0439868, 43.2969529]}, "properties": {"kind": "hydrant"}}, {"type": "Feature", "geometry": {"type": "Point", "coordinates": [28.0462108, 43.296126]}, "properties": {"kind": "hydrant"}}, {"type": "Feature", "geometry": {"type": "Point", "coordinates": [28.0488195, 43.2983003]}, "properties": {"kind": "hydrant"}}, {"type": "Feature", "geometry": {"type": "Point", "coordinates": [28.0487823, 43.3004344]}, "properties": {"kind": "hydrant"}}, {"type": "Feature", "geometry": {"type": "Point", "coordinates": [28.0433216, 43.2813784]}, "properties": {"kind": "hydrant"}}, {"type": "Feature", "geometry": {"type": "Point", "coordinates": [28.0426116, 43.2897841]}, "properties": {"kind": "hydrant"}}, {"type": "Feature", "geometry": {"type": "Point", "coordinates": [28.0428691, 43.2895935]}, "properties": {"kind": "hydrant"}}, {"type": "Feature", "geometry": {"type": "Point", "coordinates": [28.0497056, 43.3008533]}, "properties": {"kind": "hydrant"}}, {"type": "Feature", "geometry": {"type": "Point", "coordinates": [28.0391407, 43.2944557]}, "properties": {"kind": "hydrant"}}, {"type": "Feature", "geometry": {"type": "Point", "coordinates": [28.0465733, 43.296903]}, "properties": {"kind": "hydrant"}}, {"type": "Feature", "geometry": {"type": "Point", "coordinates": [28.0479646, 43.2981063]}, "properties": {"kind": "hydrant"}}, {"type": "Feature", "geometry": {"type": "Point", "coordinates": [28.0457701, 43.2988256]}, "properties": {"kind": "hydrant"}}, {"type": "Feature", "geometry": {"type": "Point", "coordinates": [28.0425108, 43.2876949]}, "properties": {"kind": "hydrant"}}, {"type": "Feature", "geometry": {"type": "Point", "coordinates": [28.0423638, 43.28271]}, "properties": {"kind": "hydrant"}}, {"type": "Feature", "geometry": {"type": "Point", "coordinates": [28.0414568, 43.2835006]}, "properties": {"kind": "hydrant"}}, {"type": "Feature", "geometry": {"type": "Point", "coordinates": [28.0487915, 43.2996]}, "properties": {"kind": "hydrant"}}, {"type": "Feature", "geometry": {"type": "Point", "coordinates": [28.0490638, 43.2999801]}, "properties": {"kind": "hydrant"}}, {"type": "Feature", "geometry": {"type": "Point", "coordinates": [28.0442681, 43.2950712]}, "properties": {"kind": "hydrant"}}, {"type": "Feature", "geometry": {"type": "Point", "coordinates": [28.0391296, 43.2824187]}, "properties": {"kind": "hydrant"}}, {"type": "Feature", "geometry": {"type": "Point", "coordinates": [28.0429983, 43.2880535]}, "properties": {"kind": "hydrant"}}, {"type": "Feature", "geometry": {"type": "Point", "coordinates": [28.0440556, 43.2881929]}, "properties": {"kind": "hydrant"}}, {"type": "Feature", "geometry": {"type": "Point", "coordinates": [28.046705, 43.2977188]}, "properties": {"kind": "hydrant"}}, {"type": "Feature", "geometry": {"type": "Point", "coordinates": [28.0494044, 43.3010834]}, "properties": {"kind": "hydrant"}}, {"type": "Feature", "geometry": {"type": "Point", "coordinates": [28.0378755, 43.2852464]}, "properties": {"kind": "hydrant"}}, {"type": "Feature", "geometry": {"type": "Point", "coordinates": [28.0392808, 43.2879426]}, "properties": {"kind": "hydrant"}}, {"type": "Feature", "geometry": {"type": "Point", "coordinates": [28.0401536, 43.2873248]}, "properties": {"kind": "hydrant"}}, {"type": "Feature", "geometry": {"type": "Point", "coordinates": [28.0463627, 43.2902353]}, "properties": {"kind": "hydrant"}}, {"type": "Feature", "geometry": {"type": "Point", "coordinates": [28.0378291, 43.2879405]}, "properties": {"kind": "hydrant"}}, {"type": "Feature", "geometry": {"type": "Point", "coordinates": [28.0415933, 43.2867212]}, "properties": {"kind": "hydrant"}}, {"type": "Feature", "geometry": {"type": "Point", "coordinates": [28.0381038, 43.280593]}, "properties": {"kind": "hydrant"}}, {"type": "Feature", "geometry": {"type": "Point", "coordinates": [28.035499, 43.2807175]}, "properties": {"kind": "hydrant"}}, {"type": "Feature", "geometry": {"type": "Point", "coordinates": [28.0459046, 43.2950699]}, "properties": {"kind": "hydrant"}}, {"type": "Feature", "geometry": {"type": "Point", "coordinates": [28.0397683, 43.2852438]}, "properties": {"kind": "hydrant"}}, {"type": "Feature", "geometry": {"type": "Point", "coordinates": [28.0457886, 43.2893427]}, "properties": {"kind": "hydrant"}}, {"type": "Feature", "geometry": {"type": "Point", "coordinates": [28.0450738, 43.2884898]}, "properties": {"kind": "hydrant"}}, {"type": "Feature", "geometry": {"type": "Point", "coordinates": [28.0412844, 43.2844536]}, "properties": {"kind": "hydrant"}}, {"type": "Feature", "geometry": {"type": "Point", "coordinates": [28.0461614, 43.2915271]}, "properties": {"kind": "hydrant"}}, {"type": "Feature", "geometry": {"type": "Point", "coordinates": [28.0453212, 43.2921206]}, "properties": {"kind": "hydrant"}}, {"type": "Feature", "geometry": {"type": "Point", "coordinates": [28.0425872, 43.2856317]}, "properties": {"kind": "hydrant"}}, {"type": "Feature", "geometry": {"type": "Point", "coordinates": [28.0449479, 43.2926619]}, "properties": {"kind": "hydrant"}}, {"type": "Feature", "geometry": {"type": "Point", "coordinates": [28.0399585, 43.2841648]}, "properties": {"kind": "hydrant"}}, {"type": "Feature", "geometry": {"type": "Point", "coordinates": [28.0457979, 43.2931259]}, "properties": {"kind": "hydrant"}}, {"type": "Feature", "geometry": {"type": "Point", "coordinates": [28.0423504, 43.291724]}, "properties": {"kind": "hydrant"}}, {"type": "Feature", "geometry": {"type": "Point", "coordinates": [28.0467083, 43.2925932]}, "properties": {"kind": "hydrant"}}, {"type": "Feature", "geometry": {"type": "Point", "coordinates": [28.0404545, 43.2919845]}, "properties": {"kind": "hydrant"}}, {"type": "Feature", "geometry": {"type": "Point", "coordinates": [28.040856, 43.280098]}, "properties": {"kind": "hydrant"}}, {"type": "Feature", "geometry": {"type": "Point", "coordinates": [28.0443851, 43.2983456]}, "properties": {"kind": "hydrant"}}, {"type": "Feature", "geometry": {"type": "Point", "coordinates": [28.0456263, 43.3001147]}, "properties": {"kind": "hydrant"}}, {"type": "Feature", "geometry": {"type": "Point", "coordinates": [28.0386091, 43.2890116]}, "properties": {"kind": "hydrant"}}, {"type": "Feature", "geometry": {"type": "Point", "coordinates": [28.0433431, 43.2970494]}, "properties": {"kind": "hydrant"}}, {"type": "Feature", "geometry": {"type": "Point", "coordinates": [28.0426821, 43.2877663]}, "properties": {"kind": "hydrant"}}, {"type": "Feature", "geometry": {"type": "Point", "coordinates": [28.0473803, 43.2972819]}, "properties": {"kind": "hydrant"}}, {"type": "Feature", "geometry": {"type": "Point", "coordinates": [28.0431393, 43.2803608]}, "properties": {"kind": "hydrant"}}, {"type": "Feature", "geometry": {"type": "Point", "coordinates": [28.0432367, 43.2825173]}, "properties": {"kind": "hydrant"}}, {"type": "Feature", "geometry": {"type": "Point", "coordinates": [28.0435751, 43.2818528]}, "properties": {"kind": "hydrant"}}, {"type": "Feature", "geometry": {"type": "Point", "coordinates": [28.043473, 43.2827158]}, "properties": {"kind": "hydrant"}}, {"type": "Feature", "geometry": {"type": "Point", "coordinates": [28.039742, 43.2785384]}, "properties": {"kind": "hydrant"}}, {"type": "Feature", "geometry": {"type": "Point", "coordinates": [28.0390869, 43.2777858]}, "properties": {"kind": "label", "name": "х-л Елена"}}, {"type": "Feature", "geometry": {"type": "Point", "coordinates": [28.0383572, 43.2774454]}, "properties": {"kind": "label", "name": "х-л Плиска"}}, {"type": "Feature", "geometry": {"type": "Point", "coordinates": [28.0377935, 43.2771993]}, "properties": {"kind": "label", "name": "х-л Блу скай"}}, {"type": "Feature", "geometry": {"type": "Point", "coordinates": [28.0383694, 43.2766826]}, "properties": {"kind": "label", "name": "х-л Градина"}}, {"type": "Feature", "geometry": {"type": "Point", "coordinates": [28.0376953, 43.2769239]}, "properties": {"kind": "label", "name": "х-л Холидей парк"}}, {"type": "Feature", "geometry": {"type": "Point", "coordinates": [28.0379522, 43.2758391]}, "properties": {"kind": "label", "name": "х-л Долче вита"}}, {"type": "Feature", "geometry": {"type": "Point", "coordinates": [28.0401464, 43.2771151]}, "properties": {"kind": "label", "name": "х-л Търново"}}, {"type": "Feature", "geometry": {"type": "Point", "coordinates": [28.0412336, 43.2762066]}, "properties": {"kind": "label", "name": "к-с Република"}}, {"type": "Feature", "geometry": {"type": "Point", "coordinates": [28.0414274, 43.2783715]}, "properties": {"kind": "label", "name": "х-л Амбасадор"}}, {"type": "Feature", "geometry": {"type": "Point", "coordinates": [28.0389867, 43.2784212]}, "properties": {"kind": "label", "name": "х-л Посейдон"}}, {"type": "Feature", "geometry": {"type": "Point", "coordinates": [28.0378242, 43.2790156]}, "properties": {"kind": "label", "name": "х-л Хелиос/Aполо"}}, {"type": "Feature", "geometry": {"type": "Point", "coordinates": [28.0402879, 43.278674]}, "properties": {"kind": "label", "name": "х-л Аква марин, Одесос"}}, {"type": "Feature", "geometry": {"type": "Point", "coordinates": [28.0376197, 43.2780536]}, "properties": {"kind": "label", "name": "х-л Рио вива"}}, {"type": "Feature", "geometry": {"type": "Point", "coordinates": [28.0393344, 43.279722]}, "properties": {"kind": "label", "name": "х-л Шипка"}}, {"type": "Feature", "geometry": {"type": "Point", "coordinates": [28.0395334, 43.280306]}, "properties": {"kind": "label", "name": "х-л Kамчия"}}, {"type": "Feature", "geometry": {"type": "Point", "coordinates": [28.0383171, 43.2803217]}, "properties": {"kind": "label", "name": "х-л Роял"}}, {"type": "Feature", "geometry": {"type": "Point", "coordinates": [28.0403604, 43.2795878]}, "properties": {"kind": "label", "name": "х-л София"}}, {"type": "Feature", "geometry": {"type": "Point", "coordinates": [28.0419885, 43.2801832]}, "properties": {"kind": "label", "name": "х-л Марина"}}, {"type": "Feature", "geometry": {"type": "Point", "coordinates": [28.0423935, 43.2793836]}, "properties": {"kind": "label", "name": "х-л Бонита"}}, {"type": "Feature", "geometry": {"type": "Point", "coordinates": [28.0419577, 43.2807346]}, "properties": {"kind": "label", "name": "х-л Астера"}}, {"type": "Feature", "geometry": {"type": "Point", "coordinates": [28.0406846, 43.2812289]}, "properties": {"kind": "label", "name": "х-л Арена"}}, {"type": "Feature", "geometry": {"type": "Point", "coordinates": [28.0404051, 43.2804918]}, "properties": {"kind": "label", "name": "х-л Перуника"}}, {"type": "Feature", "geometry": {"type": "Point", "coordinates": [28.0396649, 43.2812239]}, "properties": {"kind": "label", "name": "Бонкърс"}}, {"type": "Feature", "geometry": {"type": "Point", "coordinates": [28.0390569, 43.2812786]}, "properties": {"kind": "label", "name": "х-л Атлас"}}, {"type": "Feature", "geometry": {"type": "Point", "coordinates": [28.0350706, 43.2816502]}, "properties": {"kind": "label", "name": "Аквапарк"}}, {"type": "Feature", "geometry": {"type": "Point", "coordinates": [28.0367999, 43.2819127]}, "properties": {"kind": "label", "name": "к-с Амфора палас"}}, {"type": "Feature", "geometry": {"type": "Point", "coordinates": [28.0409314, 43.2822329]}, "properties": {"kind": "label", "name": "х-л Тинтява"}}, {"type": "Feature", "geometry": {"type": "Point", "coordinates": [28.0404469, 43.2832372]}, "properties": {"kind": "label", "name": "х-л Карнавал"}}, {"type": "Feature", "geometry": {"type": "Point", "coordinates": [28.041582, 43.283311]}, "properties": {"kind": "label", "name": "х-л Арабела"}}, {"type": "Feature", "geometry": {"type": "Point", "coordinates": [28.0387174, 43.2827609]}, "properties": {"kind": "label", "name": "х-л Рива"}}, {"type": "Feature", "geometry": {"type": "Point", "coordinates": [28.038496, 43.282279]}, "properties": {"kind": "label", "name": "Хавана"}}, {"type": "Feature", "geometry": {"type": "Point", "coordinates": [28.0382568, 43.2818864]}, "properties": {"kind": "label", "name": "х-л Варшава"}}, {"type": "Feature", "geometry": {"type": "Point", "coordinates": [28.0395905, 43.2820117]}, "properties": {"kind": "label", "name": "х-л Афродита"}}, {"type": "Feature", "geometry": {"type": "Point", "coordinates": [28.0377112, 43.2827392]}, "properties": {"kind": "label", "name": "х-л Хавана"}}, {"type": "Feature", "geometry": {"type": "Point", "coordinates": [28.0365081, 43.2828969]}, "properties": {"kind": "label", "name": "Учебна база"}}, {"type": "Feature", "geometry": {"type": "Point", "coordinates": [28.0380612, 43.2849629]}, "properties": {"kind": "label", "name": "х-л Мадара"}}, {"type": "Feature", "geometry": {"type": "Point", "coordinates": [28.03782, 43.2840238]}, "properties": {"kind": "label", "name": "х-л Перла"}}, {"type": "Feature", "geometry": {"type": "Point", "coordinates": [28.0385666, 43.2836313]}, "properties": {"kind": "label", "name": "х-л Кристал"}}, {"type": "Feature", "geometry": {"type": "Point", "coordinates": [28.0379789, 43.2810014]}, "properties": {"kind": "label", "name": "х-л Царевец"}}, {"type": "Feature", "geometry": {"type": "Point", "coordinates": [28.0361607, 43.2789451]}, "properties": {"kind": "label", "name": "складова база"}}, {"type": "Feature", "geometry": {"type": "Point", "coordinates": [28.036688, 43.2793629]}, "properties": {"kind": "label", "name": "х-л Меркурий"}}, {"type": "Feature", "geometry": {"type": "Point", "coordinates": [28.039206, 43.2850803]}, "properties": {"kind": "label", "name": "х-л Алегра"}}, {"type": "Feature", "geometry": {"type": "Point", "coordinates": [28.0382621, 43.2856494]}, "properties": {"kind": "label", "name": "х-л Дана палас"}}, {"type": "Feature", "geometry": {"type": "Point", "coordinates": [28.0388013, 43.2859314]}, "properties": {"kind": "label", "name": "х-л Сердика"}}, {"type": "Feature", "geometry": {"type": "Point", "coordinates": [28.0402565, 43.285238]}, "properties": {"kind": "label", "name": "х-л Славей"}}, {"type": "Feature", "geometry": {"type": "Point", "coordinates": [28.0408703, 43.2846896]}, "properties": {"kind": "label", "name": "х-л Малина/Ибис/"}}, {"type": "Feature", "geometry": {"type": "Point", "coordinates": [28.0417559, 43.285492]}, "properties": {"kind": "label", "name": "к-с Иглика"}}, {"type": "Feature", "geometry": {"type": "Point", "coordinates": [28.0399945, 43.2859686]}, "properties": {"kind": "label", "name": "х-л Примасол сънрайз"}}, {"type": "Feature", "geometry": {"type": "Point", "coordinates": [28.0408139, 43.2861609]}, "properties": {"kind": "label", "name": "х-л Ялта"}}, {"type": "Feature", "geometry": {"type": "Point", "coordinates": [28.0394078, 43.2867056]}, "properties": {"kind": "label", "name": "х-л Екселсиор"}}, {"type": "Feature", "geometry": {"type": "Point", "coordinates": [28.0404011, 43.2841949]}, "properties": {"kind": "label", "name": "х-л Мимоза"}}, {"type": "Feature", "geometry": {"type": "Point", "coordinates": [28.0402899, 43.2874611]}, "properties": {"kind": "label", "name": "х-л Континентал"}}, {"type": "Feature", "geometry": {"type": "Point", "coordinates": [28.041713, 43.2868613]}, "properties": {"kind": "label", "name": "х-л Здравец"}}, {"type": "Feature", "geometry": {"type": "Point", "coordinates": [28.0415148, 43.2876494]}, "properties": {"kind": "label", "name": "х-л Престиж"}}, {"type": "Feature", "geometry": {"type": "Point", "coordinates": [28.0392983, 43.2872953]}, "properties": {"kind": "label", "name": " Паркоподдържане"}}, {"type": "Feature", "geometry": {"type": "Point", "coordinates": [28.0383394, 43.2875039]}, "properties": {"kind": "label", "name": "х-л Джоя"}}, {"type": "Feature", "geometry": {"type": "Point", "coordinates": [28.0363819, 43.2867616]}, "properties": {"kind": "label", "name": "х-л Парадаис"}}, {"type": "Feature", "geometry": {"type": "Point", "coordinates": [28.0373976, 43.2872677]}, "properties": {"kind": "label", "name": "Транспорт"}}, {"type": "Feature", "geometry": {"type": "Point", "coordinates": [28.0379022, 43.2864192]}, "properties": {"kind": "label", "name": "работилница"}}, {"type": "Feature", "geometry": {"type": "Point", "coordinates": [28.036577, 43.2856353]}, "properties": {"kind": "label", "name": "общежитие Витоша"}}, {"type": "Feature", "geometry": {"type": "Point", "coordinates": [28.0389324, 43.2889257]}, "properties": {"kind": "label", "name": "ЕРП, ВиК"}}, {"type": "Feature", "geometry": {"type": "Point", "coordinates": [28.0387504, 43.2884894]}, "properties": {"kind": "label", "name": "5-то РПУ"}}, {"type": "Feature", "geometry": {"type": "Point", "coordinates": [28.0387428, 43.2896775]}, "properties": {"kind": "label", "name": "АД Златни пясъци"}}, {"type": "Feature", "geometry": {"type": "Point", "coordinates": [28.0393959, 43.2900094]}, "properties": {"kind": "label", "name": "Поликлиника"}}, {"type": "Feature", "geometry": {"type": "Point", "coordinates": [28.0404902, 43.2884462]}, "properties": {"kind": "label", "name": "х-л Дана палас"}}, {"type": "Feature", "geometry": {"type": "Point", "coordinates": [28.0407841, 43.2891262]}, "properties": {"kind": "label", "name": "х-л Люляк"}}, {"type": "Feature", "geometry": {"type": "Point", "coordinates": [28.044631, 43.2878409]}, "properties": {"kind": "label", "name": "к-с Сирена"}}, {"type": "Feature", "geometry": {"type": "Point", "coordinates": [28.0411439, 43.2895914]}, "properties": {"kind": "label", "name": "х-л Грийн парк"}}, {"type": "Feature", "geometry": {"type": "Point", "coordinates": [28.0428077, 43.2858822]}, "properties": {"kind": "label", "name": "х-л Ерма"}}, {"type": "Feature", "geometry": {"type": "Point", "coordinates": [28.0432909, 43.2879976]}, "properties": {"kind": "label", "name": "х-л Годън лаън"}}, {"type": "Feature", "geometry": {"type": "Point", "coordinates": [28.042433, 43.2873162]}, "properties": {"kind": "label", "name": "х-л Престиж"}}, {"type": "Feature", "geometry": {"type": "Point", "coordinates": [28.0418648, 43.290413]}, "properties": {"kind": "label", "name": "р-т Воденицата"}}, {"type": "Feature", "geometry": {"type": "Point", "coordinates": [28.0433022, 43.2902458]}, "properties": {"kind": "label", "name": "х-л Мелия"}}, {"type": "Feature", "geometry": {"type": "Point", "coordinates": [28.0406998, 43.2900062]}, "properties": {"kind": "label", "name": "х-л Диана"}}, {"type": "Feature", "geometry": {"type": "Point", "coordinates": [28.0420563, 43.288676]}, "properties": {"kind": "label", "name": "х-л Палма"}}, {"type": "Feature", "geometry": {"type": "Point", "coordinates": [28.0445509, 43.2890519]}, "properties": {"kind": "label", "name": "к-с Златна котва"}}, {"type": "Feature", "geometry": {"type": "Point", "coordinates": [28.043963, 43.2862033]}, "properties": {"kind": "label", "name": "х-л Адмирал"}}, {"type": "Feature", "geometry": {"type": "Point", "coordinates": [28.0442708, 43.2873572]}, "properties": {"kind": "label", "name": "х-л Извора"}}, {"type": "Feature", "geometry": {"type": "Point", "coordinates": [28.0431649, 43.284765]}, "properties": {"kind": "label", "name": "Поща"}}, {"type": "Feature", "geometry": {"type": "Point", "coordinates": [28.042796, 43.2839007]}, "properties": {"kind": "label", "name": "х-л Интернационал"}}, {"type": "Feature", "geometry": {"type": "Point", "coordinates": [28.0420611, 43.2820819]}, "properties": {"kind": "label", "name": "х-л Гладиола стар"}}, {"type": "Feature", "geometry": {"type": "Point", "coordinates": [28.0419958, 43.2814173]}, "properties": {"kind": "label", "name": "х-л Акация"}}, {"type": "Feature", "geometry": {"type": "Point", "coordinates": [28.0412631, 43.2911545]}, "properties": {"kind": "label", "name": "к-с Оазис"}}, {"type": "Feature", "geometry": {"type": "Point", "coordinates": [28.042959, 43.2918327]}, "properties": {"kind": "label", "name": "почивна база"}}, {"type": "Feature", "geometry": {"type": "Point", "coordinates": [28.0389473, 43.2913385]}, "properties": {"kind": "label", "name": "х-л Златен рог"}}, {"type": "Feature", "geometry": {"type": "Point", "coordinates": [28.0448742, 43.2918944]}, "properties": {"kind": "label", "name": "х-л Астория"}}, {"type": "Feature", "geometry": {"type": "Point", "coordinates": [28.045599, 43.2913875]}, "properties": {"kind": "label", "name": "х-л Астория море"}}, {"type": "Feature", "geometry": {"type": "Point", "coordinates": [28.0440925, 43.2923145]}, "properties": {"kind": "label", "name": "к-с Аргиш Партез"}}, {"type": "Feature", "geometry": {"type": "Point", "coordinates": [28.045663, 43.2920681]}, "properties": {"kind": "label", "name": "х-л Калиакра"}}, {"type": "Feature", "geometry": {"type": "Point", "coordinates": [28.0460818, 43.2929174]}, "properties": {"kind": "label", "name": "х-л Виста Мар"}}, {"type": "Feature", "geometry": {"type": "Point", "coordinates": [28.0460884, 43.2936266]}, "properties": {"kind": "label", "name": "х-л Метропол"}}, {"type": "Feature", "geometry": {"type": "Point", "coordinates": [28.0451333, 43.2932734]}, "properties": {"kind": "label", "name": "х-л Болеро"}}, {"type": "Feature", "geometry": {"type": "Point", "coordinates": [28.0449406, 43.2934946]}, "properties": {"kind": "label", "name": "х-л Болеро"}}, {"type": "Feature", "geometry": {"type": "Point", "coordinates": [28.0441505, 43.2943944]}, "properties": {"kind": "label", "name": "х-л Годън бийч"}}, {"type": "Feature", "geometry": {"type": "Point", "coordinates": [28.0459919, 43.2942869]}, "properties": {"kind": "label", "name": "х-л Лилия"}}, {"type": "Feature", "geometry": {"type": "Point", "coordinates": [28.046275, 43.2953721]}, "properties": {"kind": "label", "name": "х-л Палм бийч"}}, {"type": "Feature", "geometry": {"type": "Point", "coordinates": [28.0463992, 43.2961784]}, "properties": {"kind": "label", "name": "х-л Луна"}}, {"type": "Feature", "geometry": {"type": "Point", "coordinates": [28.0450106, 43.2961914]}, "properties": {"kind": "label", "name": "х-л Бендита"}}, {"type": "Feature", "geometry": {"type": "Point", "coordinates": [28.042164, 43.2947345]}, "properties": {"kind": "label", "name": "х-л Зора"}}, {"type": "Feature", "geometry": {"type": "Point", "coordinates": [28.0436387, 43.2959301]}, "properties": {"kind": "label", "name": "х-л Бриз"}}, {"type": "Feature", "geometry": {"type": "Point", "coordinates": [28.0433358, 43.2948218]}, "properties": {"kind": "label", "name": "х-л Немус"}}, {"type": "Feature", "geometry": {"type": "Point", "coordinates": [28.0470327, 43.2970574]}, "properties": {"kind": "label", "name": "х-л Ноа"}}, {"type": "Feature", "geometry": {"type": "Point", "coordinates": [28.0439888, 43.2966935]}, "properties": {"kind": "label", "name": "х-л Хоризонт"}}, {"type": "Feature", "geometry": {"type": "Point", "coordinates": [28.0443681, 43.2979921]}, "properties": {"kind": "label", "name": "х-л Марая"}}, {"type": "Feature", "geometry": {"type": "Point", "coordinates": [28.0460481, 43.2989513]}, "properties": {"kind": "label", "name": "х-л Грий парк Берлин"}}, {"type": "Feature", "geometry": {"type": "Point", "coordinates": [28.0483202, 43.2993706]}, "properties": {"kind": "label", "name": "х-л Енканто бийч"}}, {"type": "Feature", "geometry": {"type": "Point", "coordinates": [28.0480484, 43.2982701]}, "properties": {"kind": "label", "name": "х-л Сентидо Марея"}}, {"type": "Feature", "geometry": {"type": "Point", "coordinates": [28.0492226, 43.300682]}, "properties": {"kind": "label", "name": "х-л Берлин"}}, {"type": "Feature", "geometry": {"type": "Point", "coordinates": [28.0501022, 43.3021629]}, "properties": {"kind": "label", "name": "ПСОВ"}}, {"type": "Feature", "geometry": {"type": "Point", "coordinates": [28.049669, 43.3016776]}, "properties": {"kind": "label", "name": "Пристанище"}}, {"type": "Feature", "geometry": {"type": "Point", "coordinates": [28.0457504, 43.2999213]}, "properties": {"kind": "label", "name": "Кукери"}}, {"type": "Feature", "geometry": {"type": "Point", "coordinates": [28.0367284, 43.2773529]}, "properties": {"kind": "label", "name": "к-с Сън райз"}}, {"type": "Feature", "geometry": {"type": "Point", "coordinates": [28.0366588, 43.2761382]}, "properties": {"kind": "label", "name": "почивна база Енерго"}}, {"type": "Feature", "geometry": {"type": "Point", "coordinates": [28.0387226, 43.2759289]}, "properties": {"kind": "label", "name": "ПХ"}}, {"type": "Feature", "geometry": {"type": "Point", "coordinates": [28.0385782, 43.2761392]}, "properties": {"kind": "label", "name": "ПХ"}}, {"type": "Feature", "geometry": {"type": "Point", "coordinates": [28.038064, 43.2760271]}, "properties": {"kind": "label", "name": "ПХ"}}, {"type": "Feature", "geometry": {"type": "Point", "coordinates": [28.0378129, 43.2758179]}, "properties": {"kind": "label", "name": "ПХ"}}, {"type": "Feature", "geometry": {"type": "Point", "coordinates": [28.0383898, 43.2762934]}, "properties": {"kind": "label", "name": "ПХ"}}, {"type": "Feature", "geometry": {"type": "Point", "coordinates": [28.03382, 43.2757607]}, "properties": {"kind": "label", "name": "ПХ"}}, {"type": "Feature", "geometry": {"type": "Point", "coordinates": [28.0375331, 43.2767077]}, "properties": {"kind": "label", "name": "ПХ"}}, {"type": "Feature", "geometry": {"type": "Point", "coordinates": [28.0397737, 43.2785584]}, "properties": {"kind": "label", "name": "ПХ"}}, {"type": "Feature", "geometry": {"type": "Point", "coordinates": [28.0400946, 43.2782018]}, "properties": {"kind": "label", "name": "ПХ"}}, {"type": "Feature", "geometry": {"type": "Point", "coordinates": [28.0412573, 43.2780014]}, "properties": {"kind": "label", "name": "ПХ"}}, {"type": "Feature", "geometry": {"type": "Point", "coordinates": [28.0428061, 43.279126]}, "properties": {"kind": "label", "name": "ПХ"}}, {"type": "Feature", "geometry": {"type": "Point", "coordinates": [28.0399605, 43.2792888]}, "properties": {"kind": "label", "name": "ПХ"}}, {"type": "Feature", "geometry": {"type": "Point", "coordinates": [28.0397083, 43.2799746]}, "properties": {"kind": "label", "name": "ПХ"}}, {"type": "Feature", "geometry": {"type": "Point", "coordinates": [28.0407774, 43.2800568]}, "properties": {"kind": "label", "name": "ПХ"}}, {"type": "Feature", "geometry": {"type": "Point", "coordinates": [28.0430873, 43.2794358]}, "properties": {"kind": "label", "name": "ПХ"}}, {"type": "Feature", "geometry": {"type": "Point", "coordinates": [28.0431605, 43.2803235]}, "properties": {"kind": "label", "name": "ПХ"}}, {"type": "Feature", "geometry": {"type": "Point", "coordinates": [28.0433084, 43.2810317]}, "properties": {"kind": "label", "name": "ПХ"}}, {"type": "Feature", "geometry": {"type": "Point", "coordinates": [28.0434876, 43.2818648]}, "properties": {"kind": "label", "name": "ПХ"}}, {"type": "Feature", "geometry": {"type": "Point", "coordinates": [28.0432457, 43.2813948]}, "properties": {"kind": "label", "name": "ПХ"}}, {"type": "Feature", "geometry": {"type": "Point", "coordinates": [28.0432735, 43.2825256]}, "properties": {"kind": "label", "name": "ПХ"}}, {"type": "Feature", "geometry": {"type": "Point", "coordinates": [28.0423895, 43.282667]}, "properties": {"kind": "label", "name": "ПХ"}}, {"type": "Feature", "geometry": {"type": "Point", "coordinates": [28.0420673, 43.2824079]}, "properties": {"kind": "label", "name": "ПХ"}}, {"type": "Feature", "geometry": {"type": "Point", "coordinates": [28.0392077, 43.2820841]}, "properties": {"kind": "label", "name": "ПХ"}}, {"type": "Feature", "geometry": {"type": "Point", "coordinates": [28.0391646, 43.282434]}, "properties": {"kind": "label", "name": "ПХ"}}, {"type": "Feature", "geometry": {"type": "Point", "coordinates": [28.0409936, 43.2826583]}, "properties": {"kind": "label", "name": "ПХ"}}, {"type": "Feature", "geometry": {"type": "Point", "coordinates": [28.0382456, 43.2830686]}, "properties": {"kind": "label", "name": "ПХ"}}, {"type": "Feature", "geometry": {"type": "Point", "coordinates": [28.0409994, 43.2807488]}, "properties": {"kind": "label", "name": "ПХ"}}, {"type": "Feature", "geometry": {"type": "Point", "coordinates": [28.0380204, 43.2805589]}, "properties": {"kind": "label", "name": "ПХ"}}, {"type": "Feature", "geometry": {"type": "Point", "coordinates": [28.0380598, 43.2805027]}, "properties": {"kind": "label", "name": "ПХ"}}, {"type": "Feature", "geometry": {"type": "Point", "coordinates": [28.0355477, 43.2806653]}, "properties": {"kind": "label", "name": "ПХ"}}, {"type": "Feature", "geometry": {"type": "Point", "coordinates": [28.0372037, 43.2807258]}, "properties": {"kind": "label", "name": "ПХ"}}, {"type": "Feature", "geometry": {"type": "Point", "coordinates": [28.037395, 43.2839594]}, "properties": {"kind": "label", "name": "ПХ"}}, {"type": "Feature", "geometry": {"type": "Point", "coordinates": [28.0401113, 43.2837206]}, "properties": {"kind": "label", "name": "ПХ"}}, {"type": "Feature", "geometry": {"type": "Point", "coordinates": [28.0398809, 43.2841895]}, "properties": {"kind": "label", "name": "ПХ"}}, {"type": "Feature", "geometry": {"type": "Point", "coordinates": [28.0412165, 43.2844741]}, "properties": {"kind": "label", "name": "ПХ"}}, {"type": "Feature", "geometry": {"type": "Point", "coordinates": [28.0413922, 43.2840419]}, "properties": {"kind": "label", "name": "ПХ"}}, {"type": "Feature", "geometry": {"type": "Point", "coordinates": [28.0400287, 43.2848117]}, "properties": {"kind": "label", "name": "ПХ"}}, {"type": "Feature", "geometry": {"type": "Point", "coordinates": [28.0378129, 43.2852031]}, "properties": {"kind": "label", "name": "ПХ"}}, {"type": "Feature", "geometry": {"type": "Point", "coordinates": [28.0396854, 43.2852593]}, "properties": {"kind": "label", "name": "ПХ"}}, {"type": "Feature", "geometry": {"type": "Point", "coordinates": [28.0394801, 43.2857767]}, "properties": {"kind": "label", "name": "ПХ"}}, {"type": "Feature", "geometry": {"type": "Point", "coordinates": [28.0422188, 43.2853643]}, "properties": {"kind": "label", "name": "ПХ"}}, {"type": "Feature", "geometry": {"type": "Point", "coordinates": [28.0426244, 43.2856492]}, "properties": {"kind": "label", "name": "ПХ"}}, {"type": "Feature", "geometry": {"type": "Point", "coordinates": [28.0435249, 43.2835805]}, "properties": {"kind": "label", "name": "ПХ"}}, {"type": "Feature", "geometry": {"type": "Point", "coordinates": [28.0435086, 43.2827322]}, "properties": {"kind": "label", "name": "ПХ"}}, {"type": "Feature", "geometry": {"type": "Point", "coordinates": [28.0414393, 43.2833728]}, "properties": {"kind": "label", "name": "ПХ"}}, {"type": "Feature", "geometry": {"type": "Point", "coordinates": [28.0414954, 43.2835179]}, "properties": {"kind": "label", "name": "ПХ"}}, {"type": "Feature", "geometry": {"type": "Point", "coordinates": [28.0437747, 43.2848649]}, "properties": {"kind": "label", "name": "ПХ"}}, {"type": "Feature", "geometry": {"type": "Point", "coordinates": [28.0398069, 43.2862363]}, "properties": {"kind": "label", "name": "ПХ"}}, {"type": "Feature", "geometry": {"type": "Point", "coordinates": [28.0378689, 43.2879039]}, "properties": {"kind": "label", "name": "ПХ"}}, {"type": "Feature", "geometry": {"type": "Point", "coordinates": [28.0388475, 43.2879445]}, "properties": {"kind": "label", "name": "ПХ"}}, {"type": "Feature", "geometry": {"type": "Point", "coordinates": [28.0392009, 43.2879595]}, "properties": {"kind": "label", "name": "ПХ"}}, {"type": "Feature", "geometry": {"type": "Point", "coordinates": [28.0400791, 43.2873452]}, "properties": {"kind": "label", "name": "ПХ"}}, {"type": "Feature", "geometry": {"type": "Point", "coordinates": [28.0399334, 43.2867956]}, "properties": {"kind": "label", "name": "ПХ"}}, {"type": "Feature", "geometry": {"type": "Point", "coordinates": [28.0415021, 43.2866867]}, "properties": {"kind": "label", "name": "ПХ"}}, {"type": "Feature", "geometry": {"type": "Point", "coordinates": [28.0414773, 43.2874229]}, "properties": {"kind": "label", "name": "ПХ"}}, {"type": "Feature", "geometry": {"type": "Point", "coordinates": [28.0426009, 43.2877352]}, "properties": {"kind": "label", "name": "ПХ"}}, {"type": "Feature", "geometry": {"type": "Point", "coordinates": [28.0424314, 43.2876618]}, "properties": {"kind": "label", "name": "ПХ"}}, {"type": "Feature", "geometry": {"type": "Point", "coordinates": [28.0440336, 43.2869984]}, "properties": {"kind": "label", "name": "ПХ"}}, {"type": "Feature", "geometry": {"type": "Point", "coordinates": [28.0439686, 43.2881513]}, "properties": {"kind": "label", "name": "ПХ"}}, {"type": "Feature", "geometry": {"type": "Point", "coordinates": [28.0446822, 43.2883124]}, "properties": {"kind": "label", "name": "ПХ"}}, {"type": "Feature", "geometry": {"type": "Point", "coordinates": [28.0449943, 43.2885041]}, "properties": {"kind": "label", "name": "ПХ"}}, {"type": "Feature", "geometry": {"type": "Point", "coordinates": [28.0458228, 43.2893551]}, "properties": {"kind": "label", "name": "ПХ"}}, {"type": "Feature", "geometry": {"type": "Point", "coordinates": [28.0430117, 43.2880951]}, "properties": {"kind": "label", "name": "ПХ"}}, {"type": "Feature", "geometry": {"type": "Point", "coordinates": [28.0402525, 43.288266]}, "properties": {"kind": "label", "name": "ПХ"}}, {"type": "Feature", "geometry": {"type": "Point", "coordinates": [28.0385316, 43.2890295]}, "properties": {"kind": "label", "name": "ПХ"}}, {"type": "Feature", "geometry": {"type": "Point", "coordinates": [28.0404245, 43.2892305]}, "properties": {"kind": "label", "name": "ПХ"}}, {"type": "Feature", "geometry": {"type": "Point", "coordinates": [28.0407245, 43.2895458]}, "properties": {"kind": "label", "name": "ПХ"}}, {"type": "Feature", "geometry": {"type": "Point", "coordinates": [28.0414325, 43.2900116]}, "properties": {"kind": "label", "name": "ПХ"}}, {"type": "Feature", "geometry": {"type": "Point", "coordinates": [28.0428276, 43.2901259]}, "properties": {"kind": "label", "name": "ПХ"}}, {"type": "Feature", "geometry": {"type": "Point", "coordinates": [28.0426462, 43.2897976]}, "properties": {"kind": "label", "name": "ПХ"}}, {"type": "Feature", "geometry": {"type": "Point", "coordinates": [28.0429057, 43.2896073]}, "properties": {"kind": "label", "name": "ПХ"}}, {"type": "Feature", "geometry": {"type": "Point", "coordinates": [28.0457265, 43.2903463]}, "properties": {"kind": "label", "name": "ПХ"}}, {"type": "Feature", "geometry": {"type": "Point", "coordinates": [28.0463981, 43.2902457]}, "properties": {"kind": "label", "name": "ПХ"}}, {"type": "Feature", "geometry": {"type": "Point", "coordinates": [28.0460724, 43.2914808]}, "properties": {"kind": "label", "name": "ПХ"}}, {"type": "Feature", "geometry": {"type": "Point", "coordinates": [28.0453602, 43.2921398]}, "properties": {"kind": "label", "name": "ПХ"}}, {"type": "Feature", "geometry": {"type": "Point", "coordinates": [28.0403901, 43.2919345]}, "properties": {"kind": "label", "name": "ПХ"}}, {"type": "Feature", "geometry": {"type": "Point", "coordinates": [28.0402709, 43.2911069]}, "properties": {"kind": "label", "name": "ПХ"}}, {"type": "Feature", "geometry": {"type": "Point", "coordinates": [28.0414277, 43.2913599]}, "properties": {"kind": "label", "name": "ПХ"}}, {"type": "Feature", "geometry": {"type": "Point", "coordinates": [28.0423992, 43.291676]}, "properties": {"kind": "label", "name": "ПХ"}}, {"type": "Feature", "geometry": {"type": "Point", "coordinates": [28.0449712, 43.2926784]}, "properties": {"kind": "label", "name": "ПХ"}}, {"type": "Feature", "geometry": {"type": "Point", "coordinates": [28.0467439, 43.2926208]}, "properties": {"kind": "label", "name": "ПХ"}}, {"type": "Feature", "geometry": {"type": "Point", "coordinates": [28.0458172, 43.2930824]}, "properties": {"kind": "label", "name": "ПХ"}}, {"type": "Feature", "geometry": {"type": "Point", "coordinates": [28.0461326, 43.2939348]}, "properties": {"kind": "label", "name": "ПХ"}}, {"type": "Feature", "geometry": {"type": "Point", "coordinates": [28.0390526, 43.294477]}, "properties": {"kind": "label", "name": "ПХ"}}, {"type": "Feature", "geometry": {"type": "Point", "coordinates": [28.0443098, 43.2950859]}, "properties": {"kind": "label", "name": "ПХ"}}, {"type": "Feature", "geometry": {"type": "Point", "coordinates": [28.0458293, 43.2950925]}, "properties": {"kind": "label", "name": "ПХ"}}, {"type": "Feature", "geometry": {"type": "Point", "coordinates": [28.04613, 43.2961491]}, "properties": {"kind": "label", "name": "ПХ"}}, {"type": "Feature", "geometry": {"type": "Point", "coordinates": [28.0433823, 43.2970687]}, "properties": {"kind": "label", "name": "ПХ"}}, {"type": "Feature", "geometry": {"type": "Point", "coordinates": [28.0440177, 43.2969684]}, "properties": {"kind": "label", "name": "ПХ"}}, {"type": "Feature", "geometry": {"type": "Point", "coordinates": [28.0474192, 43.297298]}, "properties": {"kind": "label", "name": "ПХ"}}, {"type": "Feature", "geometry": {"type": "Point", "coordinates": [28.0466377, 43.2969292]}, "properties": {"kind": "label", "name": "ПХ"}}, {"type": "Feature", "geometry": {"type": "Point", "coordinates": [28.0456632, 43.3001351]}, "properties": {"kind": "label", "name": "ПХ"}}, {"type": "Feature", "geometry": {"type": "Point", "coordinates": [28.0444139, 43.2983598]}, "properties": {"kind": "label", "name": "ПХ"}}, {"type": "Feature", "geometry": {"type": "Point", "coordinates": [28.04578, 43.2987604]}, "properties": {"kind": "label", "name": "ПХ"}}, {"type": "Feature", "geometry": {"type": "Point", "coordinates": [28.0466193, 43.2977348]}, "properties": {"kind": "label", "name": "ПХ"}}, {"type": "Feature", "geometry": {"type": "Point", "coordinates": [28.0480172, 43.2981146]}, "properties": {"kind": "label", "name": "ПХ"}}, {"type": "Feature", "geometry": {"type": "Point", "coordinates": [28.0488461, 43.2983151]}, "properties": {"kind": "label", "name": "ПХ"}}, {"type": "Feature", "geometry": {"type": "Point", "coordinates": [28.0487079, 43.2996128]}, "properties": {"kind": "label", "name": "ПХ"}}, {"type": "Feature", "geometry": {"type": "Point", "coordinates": [28.0488026, 43.30046]}, "properties": {"kind": "label", "name": "ПХ"}}, {"type": "Feature", "geometry": {"type": "Point", "coordinates": [28.0489892, 43.2999985]}, "properties": {"kind": "label", "name": "ПХ"}}, {"type": "Feature", "geometry": {"type": "Point", "coordinates": [28.0497349, 43.3008639]}, "properties": {"kind": "label", "name": "ПХ"}}, {"type": "Feature", "geometry": {"type": "Point", "coordinates": [28.0493253, 43.301106]}, "properties": {"kind": "label", "name": "ПХ"}}, {"type": "Feature", "geometry": {"type": "Point", "coordinates": [28.049493, 43.3014088]}, "properties": {"kind": "label", "name": "ПХ"}}]}